TIANMU-1 08             
1 57400U 23101B   26066.00237819  .00000346  00000+0  14775-4 0  9993
2 57400  97.2717 118.7901 0006380 134.2174 225.9592 15.29204229146020
STARLINK-32372          
1 61960U 24210B   26068.29866181  .00037691  00000+0  13711-2 0  9994
2 61960  42.9993 181.7408 0001873 287.3344  72.7303 15.27605117 74726
